[{"OBJECT_NAME":"DELTA 2 R/B(2)","OBJECT_ID":"1992-027C","EPOCH":"2026-04-04T06:45:38.956032","MEAN_MOTION":2.0532909,"ECCENTRICITY":0.64408887,"INCLINATION":22.3422,"RA_OF_ASC_NODE":98.282,"ARG_OF_PERICENTER":38.6261,"MEAN_ANOMALY":353.3276,"EPHEMERIS_TYPE":0,"CLASSIFICATION_TYPE":"U","NORAD_CAT_ID":21966,"ELEMENT_SET_NO":999,"REV_AT_EPOCH":25425,"BSTAR":0,"MEAN_MOTION_DOT":-2.24e-6,"MEAN_MOTION_DDOT":0},{"OBJECT_NAME":"INSAT-2A","OBJECT_ID":"1992-041A","EPOCH":"2026-04-04T11:46:38.601120","MEAN_MOTION":1.0022784,"ECCENTRICITY":0.0010099,"INCLINATION":14.5091,"RA_OF_ASC_NODE":352.404,"ARG_OF_PERICENTER":290.63,"MEAN_ANOMALY":261.2467,"EPHEMERIS_TYPE":0,"CLASSIFICATION_TYPE":"U","NORAD_CAT_ID":22027,"ELEMENT_SET_NO":999,"REV_AT_EPOCH":12331,"BSTAR":0,"MEAN_MOTION_DOT":-2.1e-7,"MEAN_MOTION_DDOT":0},{"OBJECT_NAME":"GORIZONT 26","OBJECT_ID":"1992-043A","EPOCH":"2026-04-04T23:21:14.413536","MEAN_MOTION":0.99243147,"ECCENTRICITY":0.00348763,"INCLINATION":13.8718,"RA_OF_ASC_NODE":345.3142,"ARG_OF_PERICENTER":273.15,"MEAN_ANOMALY":320.0503,"EPHEMERIS_TYPE":0,"CLASSIFICATION_TYPE":"U","NORAD_CAT_ID":22041,"ELEMENT_SET_NO":999,"REV_AT_EPOCH":12274,"BSTAR":0,"MEAN_MOTION_DOT":2.1e-7,"MEAN_MOTION_DDOT":0},{"OBJECT_NAME":"OPTUS B1 R/B(STAR 63F)","OBJECT_ID":"1992-054C","EPOCH":"2026-04-04T22:38:05.986176","MEAN_MOTION":2.24581064,"ECCENTRICITY":0.72407668,"INCLINATION":22.8763,"RA_OF_ASC_NODE":235.913,"ARG_OF_PERICENTER":290.9511,"MEAN_ANOMALY":9.5727,"EPHEMERIS_TYPE":0,"CLASSIFICATION_TYPE":"U","NORAD_CAT_ID":22089,"ELEMENT_SET_NO":999,"REV_AT_EPOCH":27131,"BSTAR":0.00079880217,"MEAN_MOTION_DOT":1.29e-6,"MEAN_MOTION_DDOT":0},{"OBJECT_NAME":"DELTA 2 R/B(2)","OBJECT_ID":"1992-057C","EPOCH":"2026-04-03T19:00:09.444672","MEAN_MOTION":2.175566,"ECCENTRICITY":0.67504102,"INCLINATION":20.5198,"RA_OF_ASC_NODE":317.5793,"ARG_OF_PERICENTER":99.6598,"MEAN_ANOMALY":356.5852,"EPHEMERIS_TYPE":0,"CLASSIFICATION_TYPE":"U","NORAD_CAT_ID":22098,"ELEMENT_SET_NO":999,"REV_AT_EPOCH":26694,"BSTAR":0,"MEAN_MOTION_DOT":-1.9e-6,"MEAN_MOTION_DDOT":0},{"OBJECT_NAME":"COSMOS 2209","OBJECT_ID":"1992-059A","EPOCH":"2026-04-04T00:38:04.346880","MEAN_MOTION":1.00230516,"ECCENTRICITY":0.00146036,"INCLINATION":13.6372,"RA_OF_ASC_NODE":343.184,"ARG_OF_PERICENTER":326.8909,"MEAN_ANOMALY":215.567,"EPHEMERIS_TYPE":0,"CLASSIFICATION_TYPE":"U","NORAD_CAT_ID":22112,"ELEMENT_SET_NO":999,"REV_AT_EPOCH":12287,"BSTAR":0,"MEAN_MOTION_DOT":-2.7e-6,"MEAN_MOTION_DDOT":0},{"OBJECT_NAME":"SL-12 R/B(2)","OBJECT_ID":"1992-059D","EPOCH":"2026-04-05T04:07:26.732352","MEAN_MOTION":0.99791712,"ECCENTRICITY":0.00122024,"INCLINATION":13.8681,"RA_OF_ASC_NODE":344.012,"ARG_OF_PERICENTER":334.8737,"MEAN_ANOMALY":224.4151,"EPHEMERIS_TYPE":0,"CLASSIFICATION_TYPE":"U","NORAD_CAT_ID":22115,"ELEMENT_SET_NO":999,"REV_AT_EPOCH":12155,"BSTAR":0,"MEAN_MOTION_DOT":-2.3e-6,"MEAN_MOTION_DDOT":0},{"OBJECT_NAME":"HELLAS-SAT 1 (DFS 3)","OBJECT_ID":"1992-066A","EPOCH":"2026-04-04T12:45:22.953888","MEAN_MOTION":0.99734154,"ECCENTRICITY":3.441e-5,"INCLINATION":14.2055,"RA_OF_ASC_NODE":7.6109,"ARG_OF_PERICENTER":298.8524,"MEAN_ANOMALY":209.4024,"EPHEMERIS_TYPE":0,"CLASSIFICATION_TYPE":"U","NORAD_CAT_ID":22175,"ELEMENT_SET_NO":999,"REV_AT_EPOCH":11981,"BSTAR":0,"MEAN_MOTION_DOT":-3.57e-6,"MEAN_MOTION_DDOT":0},{"OBJECT_NAME":"DELTA 2 R/B(2)","OBJECT_ID":"1992-066C","EPOCH":"2026-04-05T05:50:57.894432","MEAN_MOTION":2.1873089,"ECCENTRICITY":0.68482096,"INCLINATION":19.0808,"RA_OF_ASC_NODE":127.7947,"ARG_OF_PERICENTER":174.2029,"MEAN_ANOMALY":343.7785,"EPHEMERIS_TYPE":0,"CLASSIFICATION_TYPE":"U","NORAD_CAT_ID":22177,"ELEMENT_SET_NO":999,"REV_AT_EPOCH":4811,"BSTAR":0,"MEAN_MOTION_DOT":-5.8e-7,"MEAN_MOTION_DDOT":0},{"OBJECT_NAME":"MOLNIYA 3-42","OBJECT_ID":"1992-067A","EPOCH":"2026-04-04T14:21:32.353632","MEAN_MOTION":2.20433683,"ECCENTRICITY":0.69595606,"INCLINATION":64.4423,"RA_OF_ASC_NODE":54.2658,"ARG_OF_PERICENTER":248.1116,"MEAN_ANOMALY":28.3356,"EPHEMERIS_TYPE":0,"CLASSIFICATION_TYPE":"U","NORAD_CAT_ID":22178,"ELEMENT_SET_NO":999,"REV_AT_EPOCH":11063,"BSTAR":0,"MEAN_MOTION_DOT":-7.1e-7,"MEAN_MOTION_DDOT":0},{"OBJECT_NAME":"SL-6 R/B(2)","OBJECT_ID":"1992-067D","EPOCH":"2026-04-04T04:10:49.565856","MEAN_MOTION":2.00725691,"ECCENTRICITY":0.67969099,"INCLINATION":64.1089,"RA_OF_ASC_NODE":165.5571,"ARG_OF_PERICENTER":253.0636,"MEAN_ANOMALY":27.0083,"EPHEMERIS_TYPE":0,"CLASSIFICATION_TYPE":"U","NORAD_CAT_ID":22181,"ELEMENT_SET_NO":999,"REV_AT_EPOCH":24195,"BSTAR":0,"MEAN_MOTION_DOT":-7.92e-6,"MEAN_MOTION_DDOT":0},{"OBJECT_NAME":"SL-6 R/B(2)","OBJECT_ID":"1992-069D","EPOCH":"2026-04-05T05:59:16.762848","MEAN_MOTION":2.02811079,"ECCENTRICITY":0.64944633,"INCLINATION":68.282,"RA_OF_ASC_NODE":93.1291,"ARG_OF_PERICENTER":355.4464,"MEAN_ANOMALY":2.626,"EPHEMERIS_TYPE":0,"CLASSIFICATION_TYPE":"U","NORAD_CAT_ID":22192,"ELEMENT_SET_NO":999,"REV_AT_EPOCH":24286,"BSTAR":0,"MEAN_MOTION_DOT":5.3e-6,"MEAN_MOTION_DDOT":0},{"OBJECT_NAME":"GALAXY 7 (G-7)","OBJECT_ID":"1992-072A","EPOCH":"2026-04-04T05:41:20.154048","MEAN_MOTION":0.99699888,"ECCENTRICITY":0.00072643,"INCLINATION":14.4888,"RA_OF_ASC_NODE":3.8406,"ARG_OF_PERICENTER":29.1702,"MEAN_ANOMALY":151.407,"EPHEMERIS_TYPE":0,"CLASSIFICATION_TYPE":"U","NORAD_CAT_ID":22205,"ELEMENT_SET_NO":999,"REV_AT_EPOCH":11614,"BSTAR":0,"MEAN_MOTION_DOT":-1.04e-6,"MEAN_MOTION_DDOT":0},{"OBJECT_NAME":"EKRAN 20","OBJECT_ID":"1992-074A","EPOCH":"2026-04-04T18:59:33.936000","MEAN_MOTION":1.00285435,"ECCENTRICITY":0.00030921,"INCLINATION":13.7316,"RA_OF_ASC_NODE":344.8381,"ARG_OF_PERICENTER":229.1248,"MEAN_ANOMALY":314.9619,"EPHEMERIS_TYPE":0,"CLASSIFICATION_TYPE":"U","NORAD_CAT_ID":22210,"ELEMENT_SET_NO":999,"REV_AT_EPOCH":4663,"BSTAR":0,"MEAN_MOTION_DOT":8.0e-7,"MEAN_MOTION_DDOT":0},{"OBJECT_NAME":"SL-12 R/B(2)","OBJECT_ID":"1992-074D","EPOCH":"2026-04-05T05:21:05.998176","MEAN_MOTION":1.01145364,"ECCENTRICITY":0.00195936,"INCLINATION":13.3122,"RA_OF_ASC_NODE":343.3419,"ARG_OF_PERICENTER":147.2474,"MEAN_ANOMALY":27.4843,"EPHEMERIS_TYPE":0,"CLASSIFICATION_TYPE":"U","NORAD_CAT_ID":22213,"ELEMENT_SET_NO":999,"REV_AT_EPOCH":12503,"BSTAR":0,"MEAN_MOTION_DOT":-1.62e-6,"MEAN_MOTION_DDOT":0},{"OBJECT_NAME":"SL-6 R/B(2)","OBJECT_ID":"1992-081D","EPOCH":"2026-04-04T23:50:16.437120","MEAN_MOTION":2.03438732,"ECCENTRICITY":0.63739213,"INCLINATION":68.696,"RA_OF_ASC_NODE":13.6268,"ARG_OF_PERICENTER":18.5596,"MEAN_ANOMALY":356.7358,"EPHEMERIS_TYPE":0,"CLASSIFICATION_TYPE":"U","NORAD_CAT_ID":22241,"ELEMENT_SET_NO":999,"REV_AT_EPOCH":24783,"BSTAR":0,"MEAN_MOTION_DOT":4.87e-6,"MEAN_MOTION_DDOT":0},{"OBJECT_NAME":"GORIZONT 27","OBJECT_ID":"1992-082A","EPOCH":"2026-04-04T20:41:18.243744","MEAN_MOTION":1.00193371,"ECCENTRICITY":0.00124257,"INCLINATION":13.7599,"RA_OF_ASC_NODE":344.5223,"ARG_OF_PERICENTER":20.0905,"MEAN_ANOMALY":154.0022,"EPHEMERIS_TYPE":0,"CLASSIFICATION_TYPE":"U","NORAD_CAT_ID":22245,"ELEMENT_SET_NO":999,"REV_AT_EPOCH":12638,"BSTAR":0,"MEAN_MOTION_DOT":6.0e-7,"MEAN_MOTION_DDOT":0},{"OBJECT_NAME":"HIMAWARI-3 AKM","OBJECT_ID":"1984-080E","EPOCH":"2026-04-04T22:56:20.954976","MEAN_MOTION":0.99755867,"ECCENTRICITY":0.01370482,"INCLINATION":9.6423,"RA_OF_ASC_NODE":316.6106,"ARG_OF_PERICENTER":109.4379,"MEAN_ANOMALY":85.4666,"EPHEMERIS_TYPE":0,"CLASSIFICATION_TYPE":"U","NORAD_CAT_ID":22266,"ELEMENT_SET_NO":999,"REV_AT_EPOCH":11675,"BSTAR":0,"MEAN_MOTION_DOT":-3.18e-6,"MEAN_MOTION_DDOT":0},{"OBJECT_NAME":"COSMOS 2224","OBJECT_ID":"1992-088A","EPOCH":"2026-04-04T22:56:58.394688","MEAN_MOTION":1.00249993,"ECCENTRICITY":0.00069412,"INCLINATION":13.6725,"RA_OF_ASC_NODE":348.4936,"ARG_OF_PERICENTER":279.8417,"MEAN_ANOMALY":246.5818,"EPHEMERIS_TYPE":0,"CLASSIFICATION_TYPE":"U","NORAD_CAT_ID":22269,"ELEMENT_SET_NO":999,"REV_AT_EPOCH":12135,"BSTAR":0,"MEAN_MOTION_DOT":-1.96e-6,"MEAN_MOTION_DDOT":0},{"OBJECT_NAME":"SL-12 R/B(2)","OBJECT_ID":"1992-088D","EPOCH":"2026-04-04T00:39:56.667744","MEAN_MOTION":1.00073607,"ECCENTRICITY":0.00085661,"INCLINATION":13.7739,"RA_OF_ASC_NODE":348.9657,"ARG_OF_PERICENTER":153.6351,"MEAN_ANOMALY":29.895,"EPHEMERIS_TYPE":0,"CLASSIFICATION_TYPE":"U","NORAD_CAT_ID":22272,"ELEMENT_SET_NO":999,"REV_AT_EPOCH":4654,"BSTAR":0,"MEAN_MOTION_DOT":-2.58e-6,"MEAN_MOTION_DDOT":0},{"OBJECT_NAME":"TDRS 6","OBJECT_ID":"1993-003B","EPOCH":"2026-04-05T03:22:07.929120","MEAN_MOTION":1.00267209,"ECCENTRICITY":0.00051091,"INCLINATION":14.182,"RA_OF_ASC_NODE":357.602,"ARG_OF_PERICENTER":182.3761,"MEAN_ANOMALY":18.0551,"EPHEMERIS_TYPE":0,"CLASSIFICATION_TYPE":"U","NORAD_CAT_ID":22314,"ELEMENT_SET_NO":999,"REV_AT_EPOCH":12167,"BSTAR":0,"MEAN_MOTION_DOT":-2.95e-6,"MEAN_MOTION_DDOT":0},{"OBJECT_NAME":"IUS R/B(2)","OBJECT_ID":"1993-003D","EPOCH":"2026-04-04T23:02:27.868128","MEAN_MOTION":1.00137773,"ECCENTRICITY":0.00672152,"INCLINATION":11.9017,"RA_OF_ASC_NODE":344.9325,"ARG_OF_PERICENTER":123.3936,"MEAN_ANOMALY":67.2774,"EPHEMERIS_TYPE":0,"CLASSIFICATION_TYPE":"U","NORAD_CAT_ID":22316,"ELEMENT_SET_NO":999,"REV_AT_EPOCH":12645,"BSTAR":0,"MEAN_MOTION_DOT":-7.5e-7,"MEAN_MOTION_DDOT":0},{"OBJECT_NAME":"RADUGA 29","OBJECT_ID":"1993-013A","EPOCH":"2026-04-04T21:50:31.948800","MEAN_MOTION":1.00379453,"ECCENTRICITY":0.00030682,"INCLINATION":13.8806,"RA_OF_ASC_NODE":345.6623,"ARG_OF_PERICENTER":180.3939,"MEAN_ANOMALY":86.8466,"EPHEMERIS_TYPE":0,"CLASSIFICATION_TYPE":"U","NORAD_CAT_ID":22557,"ELEMENT_SET_NO":999,"REV_AT_EPOCH":12094,"BSTAR":0,"MEAN_MOTION_DOT":-2.83e-6,"MEAN_MOTION_DDOT":0},{"OBJECT_NAME":"ARSENE (AO-24)","OBJECT_ID":"1993-031B","EPOCH":"2026-04-05T02:30:14.885280","MEAN_MOTION":1.42203032,"ECCENTRICITY":0.28531465,"INCLINATION":5.1643,"RA_OF_ASC_NODE":49.1676,"ARG_OF_PERICENTER":331.9539,"MEAN_ANOMALY":237.8873,"EPHEMERIS_TYPE":0,"CLASSIFICATION_TYPE":"U","NORAD_CAT_ID":22654,"ELEMENT_SET_NO":999,"REV_AT_EPOCH":16638,"BSTAR":0,"MEAN_MOTION_DOT":-1.38e-6,"MEAN_MOTION_DDOT":0}]
